[{"OBJECT_NAME":"ION SCV-012","OBJECT_ID":"2024-149DK","EPOCH":"2026-03-09T18:21:23.444352","MEAN_MOTION":14.9470579,"ECCENTRICITY":0.00046179,"INCLINATION":97.6849,"RA_OF_ASC_NODE":144.865,"ARG_OF_PERICENTER":66.6565,"MEAN_ANOMALY":293.5141,"EPHEMERIS_TYPE":0,"CLASSIFICATION_TYPE":"U","NORAD_CAT_ID":60573,"ELEMENT_SET_NO":999,"REV_AT_EPOCH":8506,"BSTAR":0.00018031368,"MEAN_MOTION_DOT":1.901e-5,"MEAN_MOTION_DDOT":0},{"OBJECT_NAME":"BUCCANEER MM","OBJECT_ID":"2025-052AM","EPOCH":"2026-03-09T22:25:46.269120","MEAN_MOTION":14.94080951,"ECCENTRICITY":0.00039773,"INCLINATION":97.6989,"RA_OF_ASC_NODE":321.9491,"ARG_OF_PERICENTER":161.9633,"MEAN_ANOMALY":198.1729,"EPHEMERIS_TYPE":0,"CLASSIFICATION_TYPE":"U","NORAD_CAT_ID":63245,"ELEMENT_SET_NO":999,"REV_AT_EPOCH":5377,"BSTAR":0.0003752761,"MEAN_MOTION_DOT":3.953e-5,"MEAN_MOTION_DDOT":0}]
